ONEWEB-0121             
1 47267U 20100K   26105.16884159  .00000475  00000+0  12849-2 0  9996
2 47267  87.9011   3.1734 0001961  81.2314 278.9037 13.12441414256372
ONEWEB-0122             
1 47268U 20100L   26105.16291582  .00000480  00000+0  12983-2 0  9994
2 47268  87.9013   3.1777 0001879  74.6476 285.4860 13.12442421256281
ONEWEB-0123             
1 47269U 20100M   26105.15867481  .00000461  00000+0  12462-2 0  9992
2 47269  87.8998   3.1934 0001685  80.2659 279.8660 13.12442613256423
ONEWEB-0124             
1 47270U 20100N   26105.22474629  .00000184  00000+0  47605-3 0  9990
2 47270  87.8999   3.1844 0001831  83.2854 276.8483 13.12443286256314
ONEWEB-0125             
1 47271U 20100P   26105.12648687 -.00000415  00000+0 -11885-2 0  9996
2 47271  87.9014   3.1795 0001700  89.6630 270.4694 13.12441934256363
ONEWEB-0126             
1 47272U 20100Q   26105.22318934  .00000142  00000+0  35994-3 0  9990
2 47272  87.9003   3.1805 0001727  75.1068 285.0252 13.12443915256440
ONEWEB-0127             
1 47273U 20100R   26105.26541061 -.00000166  00000+0 -49707-3 0  9999
2 47273  87.9003   3.1741 0001787  74.4814 285.6512 13.12441455256472
ONEWEB-0128             
1 47274U 20100S   26105.21119372 -.00000294  00000+0 -85153-3 0  9998
2 47274  87.9000   3.1987 0002139  80.3344 279.8027 13.12442624256484
ONEWEB-0129             
1 47275U 20100T   26104.96214816 -.00000238  00000+0 -69579-3 0  9991
2 47275  87.9016   3.2153 0001829  42.1421 317.9848 13.12441008256384
ONEWEB-0130             
1 47276U 20100U   26105.21796790 -.00000119  00000+0 -36555-3 0  9993
2 47276  87.9010   3.1593 0001845  75.9772 284.1562 13.12443859256381
ONEWEB-0131             
1 47277U 20100V   26105.21457872 -.00000187  00000+0 -55445-3 0  9993
2 47277  87.8998   3.1850 0001832  78.0956 282.0378 13.12443671256425
ONEWEB-0132             
1 47278U 20100W   26105.16714937  .00000458  00000+0  12384-2 0  9999
2 47278  87.9003   3.1946 0001867  80.2215 279.9124 13.12441580256310
ONEWEB-0133             
1 47279U 20100X   26105.26018929  .00000034  00000+0  59888-4 0  9991
2 47279  87.9016   3.1451 0001952  79.9526 280.1823 13.12441098256483
ONEWEB-0134             
1 47280U 20100Y   26105.15359208  .00000318  00000+0  84762-3 0  9992
2 47280  87.9012   3.1632 0001997  73.7228 286.4120 13.12443415256442
ONEWEB-0135             
1 47281U 20100Z   26105.12479065 -.00000376  00000+0 -10800-2 0  9991
2 47281  87.9002   3.1994 0002072  74.5700 285.5658 13.12441667256467
ONEWEB-0136             
1 47282U 20100AA  26105.21966826 -.00000032  00000+0 -12428-3 0  9996
2 47282  87.9011   3.1573 0002008  71.1810 288.9536 13.12443551256405
