[{"OBJECT_NAME":"ONEWEB-0121","OBJECT_ID":"2020-100K","EPOCH":"2026-04-15T04:03:07.913376","MEAN_MOTION":13.12441414,"ECCENTRICITY":0.0001961,"INCLINATION":87.9011,"RA_OF_ASC_NODE":3.1734,"ARG_OF_PERICENTER":81.2314,"MEAN_ANOMALY":278.9037,"EPHEMERIS_TYPE":0,"CLASSIFICATION_TYPE":"U","NORAD_CAT_ID":47267,"ELEMENT_SET_NO":999,"REV_AT_EPOCH":25637,"BSTAR":0.0012849,"MEAN_MOTION_DOT":4.75e-06,"MEAN_MOTION_DDOT":0.0},{"OBJECT_NAME":"ONEWEB-0122","OBJECT_ID":"2020-100L","EPOCH":"2026-04-15T03:54:35.926848","MEAN_MOTION":13.12442421,"ECCENTRICITY":0.0001879,"INCLINATION":87.9013,"RA_OF_ASC_NODE":3.1777,"ARG_OF_PERICENTER":74.6476,"MEAN_ANOMALY":285.486,"EPHEMERIS_TYPE":0,"CLASSIFICATION_TYPE":"U","NORAD_CAT_ID":47268,"ELEMENT_SET_NO":999,"REV_AT_EPOCH":25628,"BSTAR":0.0012983,"MEAN_MOTION_DOT":4.8e-06,"MEAN_MOTION_DDOT":0.0},{"OBJECT_NAME":"ONEWEB-0123","OBJECT_ID":"2020-100M","EPOCH":"2026-04-15T03:48:29.503584","MEAN_MOTION":13.12442613,"ECCENTRICITY":0.0001685,"INCLINATION":87.8998,"RA_OF_ASC_NODE":3.1934,"ARG_OF_PERICENTER":80.2659,"MEAN_ANOMALY":279.866,"EPHEMERIS_TYPE":0,"CLASSIFICATION_TYPE":"U","NORAD_CAT_ID":47269,"ELEMENT_SET_NO":999,"REV_AT_EPOCH":25642,"BSTAR":0.0012462,"MEAN_MOTION_DOT":4.61e-06,"MEAN_MOTION_DDOT":0.0},{"OBJECT_NAME":"ONEWEB-0124","OBJECT_ID":"2020-100N","EPOCH":"2026-04-15T05:23:38.079456","MEAN_MOTION":13.12443286,"ECCENTRICITY":0.0001831,"INCLINATION":87.8999,"RA_OF_ASC_NODE":3.1844,"ARG_OF_PERICENTER":83.2854,"MEAN_ANOMALY":276.8483,"EPHEMERIS_TYPE":0,"CLASSIFICATION_TYPE":"U","NORAD_CAT_ID":47270,"ELEMENT_SET_NO":999,"REV_AT_EPOCH":25631,"BSTAR":0.00047605,"MEAN_MOTION_DOT":1.84e-06,"MEAN_MOTION_DDOT":0.0},{"OBJECT_NAME":"ONEWEB-0125","OBJECT_ID":"2020-100P","EPOCH":"2026-04-15T03:02:08.465568","MEAN_MOTION":13.12441934,"ECCENTRICITY":0.00017,"INCLINATION":87.9014,"RA_OF_ASC_NODE":3.1795,"ARG_OF_PERICENTER":89.663,"MEAN_ANOMALY":270.4694,"EPHEMERIS_TYPE":0,"CLASSIFICATION_TYPE":"U","NORAD_CAT_ID":47271,"ELEMENT_SET_NO":999,"REV_AT_EPOCH":25636,"BSTAR":-0.0011885,"MEAN_MOTION_DOT":-4.15e-06,"MEAN_MOTION_DDOT":0.0},{"OBJECT_NAME":"ONEWEB-0126","OBJECT_ID":"2020-100Q","EPOCH":"2026-04-15T05:21:23.558976","MEAN_MOTION":13.12443915,"ECCENTRICITY":0.0001727,"INCLINATION":87.9003,"RA_OF_ASC_NODE":3.1805,"ARG_OF_PERICENTER":75.1068,"MEAN_ANOMALY":285.0252,"EPHEMERIS_TYPE":0,"CLASSIFICATION_TYPE":"U","NORAD_CAT_ID":47272,"ELEMENT_SET_NO":999,"REV_AT_EPOCH":25644,"BSTAR":0.00035994,"MEAN_MOTION_DOT":1.42e-06,"MEAN_MOTION_DDOT":0.0},{"OBJECT_NAME":"ONEWEB-0127","OBJECT_ID":"2020-100R","EPOCH":"2026-04-15T06:22:11.476704","MEAN_MOTION":13.12441455,"ECCENTRICITY":0.0001787,"INCLINATION":87.9003,"RA_OF_ASC_NODE":3.1741,"ARG_OF_PERICENTER":74.4814,"MEAN_ANOMALY":285.6512,"EPHEMERIS_TYPE":0,"CLASSIFICATION_TYPE":"U","NORAD_CAT_ID":47273,"ELEMENT_SET_NO":999,"REV_AT_EPOCH":25647,"BSTAR":-0.0004970700000000001,"MEAN_MOTION_DOT":-1.66e-06,"MEAN_MOTION_DDOT":0.0},{"OBJECT_NAME":"ONEWEB-0128","OBJECT_ID":"2020-100S","EPOCH":"2026-04-15T05:04:07.137408","MEAN_MOTION":13.12442624,"ECCENTRICITY":0.0002139,"INCLINATION":87.9,"RA_OF_ASC_NODE":3.1987,"ARG_OF_PERICENTER":80.3344,"MEAN_ANOMALY":279.8027,"EPHEMERIS_TYPE":0,"CLASSIFICATION_TYPE":"U","NORAD_CAT_ID":47274,"ELEMENT_SET_NO":999,"REV_AT_EPOCH":25648,"BSTAR":-0.00085153,"MEAN_MOTION_DOT":-2.94e-06,"MEAN_MOTION_DDOT":0.0},{"OBJECT_NAME":"ONEWEB-0129","OBJECT_ID":"2020-100T","EPOCH":"2026-04-14T23:05:29.601024","MEAN_MOTION":13.12441008,"ECCENTRICITY":0.0001829,"INCLINATION":87.9016,"RA_OF_ASC_NODE":3.2153,"ARG_OF_PERICENTER":42.1421,"MEAN_ANOMALY":317.9848,"EPHEMERIS_TYPE":0,"CLASSIFICATION_TYPE":"U","NORAD_CAT_ID":47275,"ELEMENT_SET_NO":999,"REV_AT_EPOCH":25638,"BSTAR":-0.0006957900000000001,"MEAN_MOTION_DOT":-2.38e-06,"MEAN_MOTION_DDOT":0.0},{"OBJECT_NAME":"ONEWEB-0130","OBJECT_ID":"2020-100U","EPOCH":"2026-04-15T05:13:52.426560","MEAN_MOTION":13.12443859,"ECCENTRICITY":0.0001845,"INCLINATION":87.901,"RA_OF_ASC_NODE":3.1593,"ARG_OF_PERICENTER":75.9772,"MEAN_ANOMALY":284.1562,"EPHEMERIS_TYPE":0,"CLASSIFICATION_TYPE":"U","NORAD_CAT_ID":47276,"ELEMENT_SET_NO":999,"REV_AT_EPOCH":25638,"BSTAR":-0.00036554999999999997,"MEAN_MOTION_DOT":-1.19e-06,"MEAN_MOTION_DDOT":0.0},{"OBJECT_NAME":"ONEWEB-0131","OBJECT_ID":"2020-100V","EPOCH":"2026-04-15T05:08:59.601408","MEAN_MOTION":13.12443671,"ECCENTRICITY":0.0001832,"INCLINATION":87.8998,"RA_OF_ASC_NODE":3.185,"ARG_OF_PERICENTER":78.0956,"MEAN_ANOMALY":282.0378,"EPHEMERIS_TYPE":0,"CLASSIFICATION_TYPE":"U","NORAD_CAT_ID":47277,"ELEMENT_SET_NO":999,"REV_AT_EPOCH":25642,"BSTAR":-0.0005544500000000001,"MEAN_MOTION_DOT":-1.87e-06,"MEAN_MOTION_DDOT":0.0},{"OBJECT_NAME":"ONEWEB-0132","OBJECT_ID":"2020-100W","EPOCH":"2026-04-15T04:00:41.705568","MEAN_MOTION":13.1244158,"ECCENTRICITY":0.0001867,"INCLINATION":87.9003,"RA_OF_ASC_NODE":3.1946,"ARG_OF_PERICENTER":80.2215,"MEAN_ANOMALY":279.9124,"EPHEMERIS_TYPE":0,"CLASSIFICATION_TYPE":"U","NORAD_CAT_ID":47278,"ELEMENT_SET_NO":999,"REV_AT_EPOCH":25631,"BSTAR":0.0012384000000000002,"MEAN_MOTION_DOT":4.58e-06,"MEAN_MOTION_DDOT":0.0},{"OBJECT_NAME":"ONEWEB-0133","OBJECT_ID":"2020-100X","EPOCH":"2026-04-15T06:14:40.354656","MEAN_MOTION":13.12441098,"ECCENTRICITY":0.0001952,"INCLINATION":87.9016,"RA_OF_ASC_NODE":3.1451,"ARG_OF_PERICENTER":79.9526,"MEAN_ANOMALY":280.1823,"EPHEMERIS_TYPE":0,"CLASSIFICATION_TYPE":"U","NORAD_CAT_ID":47279,"ELEMENT_SET_NO":999,"REV_AT_EPOCH":25648,"BSTAR":5.9888e-05,"MEAN_MOTION_DOT":3.4e-07,"MEAN_MOTION_DDOT":0.0},{"OBJECT_NAME":"ONEWEB-0134","OBJECT_ID":"2020-100Y","EPOCH":"2026-04-15T03:41:10.355712","MEAN_MOTION":13.12443415,"ECCENTRICITY":0.0001997,"INCLINATION":87.9012,"RA_OF_ASC_NODE":3.1632,"ARG_OF_PERICENTER":73.7228,"MEAN_ANOMALY":286.412,"EPHEMERIS_TYPE":0,"CLASSIFICATION_TYPE":"U","NORAD_CAT_ID":47280,"ELEMENT_SET_NO":999,"REV_AT_EPOCH":25644,"BSTAR":0.0008476200000000001,"MEAN_MOTION_DOT":3.18e-06,"MEAN_MOTION_DDOT":0.0},{"OBJECT_NAME":"ONEWEB-0135","OBJECT_ID":"2020-100Z","EPOCH":"2026-04-15T02:59:41.912160","MEAN_MOTION":13.12441667,"ECCENTRICITY":0.0002072,"INCLINATION":87.9002,"RA_OF_ASC_NODE":3.1994,"ARG_OF_PERICENTER":74.57,"MEAN_ANOMALY":285.5658,"EPHEMERIS_TYPE":0,"CLASSIFICATION_TYPE":"U","NORAD_CAT_ID":47281,"ELEMENT_SET_NO":999,"REV_AT_EPOCH":25646,"BSTAR":-0.00108,"MEAN_MOTION_DOT":-3.76e-06,"MEAN_MOTION_DDOT":0.0},{"OBJECT_NAME":"ONEWEB-0136","OBJECT_ID":"2020-100AA","EPOCH":"2026-04-15T05:16:19.337664","MEAN_MOTION":13.12443551,"ECCENTRICITY":0.0002008,"INCLINATION":87.9011,"RA_OF_ASC_NODE":3.1573,"ARG_OF_PERICENTER":71.181,"MEAN_ANOMALY":288.9536,"EPHEMERIS_TYPE":0,"CLASSIFICATION_TYPE":"U","NORAD_CAT_ID":47282,"ELEMENT_SET_NO":999,"REV_AT_EPOCH":25640,"BSTAR":-0.00012428,"MEAN_MOTION_DOT":-3.2e-07,"MEAN_MOTION_DDOT":0.0}]